CCSDS_OMM_VERS = 2.0
CREATION_DATE  = 
ORIGINATOR     = 

OBJECT_NAME    = STARLINK-36487
OBJECT_ID      = 2026-005N
CENTER_NAME    = EARTH
REF_FRAME      = TEME
TIME_SYSTEM    = UTC
MEAN_ELEMENT_THEORY = SGP/SGP4

EPOCH          = 2026-01-24T06:00:02.000160
MEAN_MOTION    = 15.82489090
ECCENTRICITY   = .00015131
INCLINATION    = 43.0005
RA_OF_ASC_NODE = 135.4112
ARG_OF_PERICENTER = 275.7599
MEAN_ANOMALY   = 166.1680

EPHEMERIS_TYPE = 0
CLASSIFICATION_TYPE = U
NORAD_CAT_ID   = 67416
ELEMENT_SET_NO = 999
REV_AT_EPOCH   = 304
BSTAR          = -.74948537E-2
MEAN_MOTION_DOT = -.1432823E-1
MEAN_MOTION_DDOT = 0

CCSDS_OMM_VERS = 2.0
CREATION_DATE  = 
ORIGINATOR     = 

OBJECT_NAME    = STARLINK-36374
OBJECT_ID      = 2026-005P
CENTER_NAME    = EARTH
REF_FRAME      = TEME
TIME_SYSTEM    = UTC
MEAN_ELEMENT_THEORY = SGP/SGP4

EPOCH          = 2026-01-24T06:00:02.000160
MEAN_MOTION    = 15.82487113
ECCENTRICITY   = .00013635
INCLINATION    = 43.0005
RA_OF_ASC_NODE = 135.4059
ARG_OF_PERICENTER = 280.4055
MEAN_ANOMALY   = 163.6735

EPHEMERIS_TYPE = 0
CLASSIFICATION_TYPE = U
NORAD_CAT_ID   = 67417
ELEMENT_SET_NO = 999
REV_AT_EPOCH   = 304
BSTAR          = -.75582576E-2
MEAN_MOTION_DOT = -.1443349E-1
MEAN_MOTION_DDOT = 0

CCSDS_OMM_VERS = 2.0
CREATION_DATE  = 
ORIGINATOR     = 

OBJECT_NAME    = STARLINK-36455
OBJECT_ID      = 2026-005Q
CENTER_NAME    = EARTH
REF_FRAME      = TEME
TIME_SYSTEM    = UTC
MEAN_ELEMENT_THEORY = SGP/SGP4

EPOCH          = 2026-01-24T06:00:02.000160
MEAN_MOTION    = 15.82468529
ECCENTRICITY   = .00013651
INCLINATION    = 43.0006
RA_OF_ASC_NODE = 135.3998
ARG_OF_PERICENTER = 277.7455
MEAN_ANOMALY   = 168.6643

EPHEMERIS_TYPE = 0
CLASSIFICATION_TYPE = U
NORAD_CAT_ID   = 67418
ELEMENT_SET_NO = 999
REV_AT_EPOCH   = 304
BSTAR          = -.76227074E-2
MEAN_MOTION_DOT = -.1453113E-1
MEAN_MOTION_DDOT = 0

CCSDS_OMM_VERS = 2.0
CREATION_DATE  = 
ORIGINATOR     = 

OBJECT_NAME    = STARLINK-36424
OBJECT_ID      = 2026-005R
CENTER_NAME    = EARTH
REF_FRAME      = TEME
TIME_SYSTEM    = UTC
MEAN_ELEMENT_THEORY = SGP/SGP4

EPOCH          = 2026-01-24T06:00:02.000160
MEAN_MOTION    = 15.82445902
ECCENTRICITY   = .00015539
INCLINATION    = 43.0005
RA_OF_ASC_NODE = 135.3941
ARG_OF_PERICENTER = 273.5482
MEAN_ANOMALY   = 175.1996

EPHEMERIS_TYPE = 0
CLASSIFICATION_TYPE = U
NORAD_CAT_ID   = 67419
ELEMENT_SET_NO = 999
REV_AT_EPOCH   = 304
BSTAR          = -.76589194E-2
MEAN_MOTION_DOT = -.1457965E-1
MEAN_MOTION_DDOT = 0

CCSDS_OMM_VERS = 2.0
CREATION_DATE  = 
ORIGINATOR     = 

OBJECT_NAME    = STARLINK-35564
OBJECT_ID      = 2026-005S
CENTER_NAME    = EARTH
REF_FRAME      = TEME
TIME_SYSTEM    = UTC
MEAN_ELEMENT_THEORY = SGP/SGP4

EPOCH          = 2026-01-24T06:00:02.000160
MEAN_MOTION    = 15.82444350
ECCENTRICITY   = .00014764
INCLINATION    = 43.0006
RA_OF_ASC_NODE = 135.3890
ARG_OF_PERICENTER = 277.3317
MEAN_ANOMALY   = 173.5310

EPHEMERIS_TYPE = 0
CLASSIFICATION_TYPE = U
NORAD_CAT_ID   = 67420
ELEMENT_SET_NO = 999
REV_AT_EPOCH   = 293
BSTAR          = -.77036157E-2
MEAN_MOTION_DOT = -.1465342E-1
MEAN_MOTION_DDOT = 0

CCSDS_OMM_VERS = 2.0
CREATION_DATE  = 
ORIGINATOR     = 

OBJECT_NAME    = STARLINK-36431
OBJECT_ID      = 2026-005T
CENTER_NAME    = EARTH
REF_FRAME      = TEME
TIME_SYSTEM    = UTC
MEAN_ELEMENT_THEORY = SGP/SGP4

EPOCH          = 2026-01-24T06:00:02.000160
MEAN_MOTION    = 15.82443108
ECCENTRICITY   = .00014862
INCLINATION    = 43.0008
RA_OF_ASC_NODE = 135.3835
ARG_OF_PERICENTER = 271.3478
MEAN_ANOMALY   = 181.6622

EPHEMERIS_TYPE = 0
CLASSIFICATION_TYPE = U
NORAD_CAT_ID   = 67421
ELEMENT_SET_NO = 999
REV_AT_EPOCH   = 283
BSTAR          = -.77863785E-2
MEAN_MOTION_DOT = -.1479179E-1
MEAN_MOTION_DDOT = 0

CCSDS_OMM_VERS = 2.0
CREATION_DATE  = 
ORIGINATOR     = 

OBJECT_NAME    = STARLINK-36418
OBJECT_ID      = 2026-005U
CENTER_NAME    = EARTH
REF_FRAME      = TEME
TIME_SYSTEM    = UTC
MEAN_ELEMENT_THEORY = SGP/SGP4

EPOCH          = 2026-01-24T06:00:02.000160
MEAN_MOTION    = 15.82459774
ECCENTRICITY   = .00014697
INCLINATION    = 43.0005
RA_OF_ASC_NODE = 135.3788
ARG_OF_PERICENTER = 276.9526
MEAN_ANOMALY   = 177.9675

EPHEMERIS_TYPE = 0
CLASSIFICATION_TYPE = U
NORAD_CAT_ID   = 67422
ELEMENT_SET_NO = 999
REV_AT_EPOCH   = 299
BSTAR          = -.78297372E-2
MEAN_MOTION_DOT = -.1487477E-1
MEAN_MOTION_DDOT = 0

CCSDS_OMM_VERS = 2.0
CREATION_DATE  = 
ORIGINATOR     = 

OBJECT_NAME    = STARLINK-36465
OBJECT_ID      = 2026-005V
CENTER_NAME    = EARTH
REF_FRAME      = TEME
TIME_SYSTEM    = UTC
MEAN_ELEMENT_THEORY = SGP/SGP4

EPOCH          = 2026-01-24T06:00:02.000160
MEAN_MOTION    = 15.82445612
ECCENTRICITY   = .00014212
INCLINATION    = 43.0009
RA_OF_ASC_NODE = 135.3730
ARG_OF_PERICENTER = 275.0355
MEAN_ANOMALY   = 182.2080

EPHEMERIS_TYPE = 0
CLASSIFICATION_TYPE = U
NORAD_CAT_ID   = 67423
ELEMENT_SET_NO = 999
REV_AT_EPOCH   = 278
BSTAR          = -.79713537E-2
MEAN_MOTION_DOT = -.1510234E-1
MEAN_MOTION_DDOT = 0

CCSDS_OMM_VERS = 2.0
CREATION_DATE  = 
ORIGINATOR     = 

OBJECT_NAME    = STARLINK-36362
OBJECT_ID      = 2026-005W
CENTER_NAME    = EARTH
REF_FRAME      = TEME
TIME_SYSTEM    = UTC
MEAN_ELEMENT_THEORY = SGP/SGP4

EPOCH          = 2026-01-24T06:00:02.000160
MEAN_MOTION    = 15.82437482
ECCENTRICITY   = .00014137
INCLINATION    = 43.0008
RA_OF_ASC_NODE = 135.3675
ARG_OF_PERICENTER = 276.9094
MEAN_ANOMALY   = 182.5606

EPHEMERIS_TYPE = 0
CLASSIFICATION_TYPE = U
NORAD_CAT_ID   = 67424
ELEMENT_SET_NO = 999
REV_AT_EPOCH   = 304
BSTAR          = -.80977817E-2
MEAN_MOTION_DOT = -.1530751E-1
MEAN_MOTION_DDOT = 0

CCSDS_OMM_VERS = 2.0
CREATION_DATE  = 
ORIGINATOR     = 

OBJECT_NAME    = STARLINK-36447
OBJECT_ID      = 2026-005X
CENTER_NAME    = EARTH
REF_FRAME      = TEME
TIME_SYSTEM    = UTC
MEAN_ELEMENT_THEORY = SGP/SGP4

EPOCH          = 2026-01-24T06:00:02.000160
MEAN_MOTION    = 15.82417943
ECCENTRICITY   = .00013381
INCLINATION    = 43.0008
RA_OF_ASC_NODE = 135.3614
ARG_OF_PERICENTER = 272.5011
MEAN_ANOMALY   = 189.2836

EPHEMERIS_TYPE = 0
CLASSIFICATION_TYPE = U
NORAD_CAT_ID   = 67425
ELEMENT_SET_NO = 999
REV_AT_EPOCH   = 304
BSTAR          = -.8214813E-2
MEAN_MOTION_DOT = -.1548826E-1
MEAN_MOTION_DDOT = 0

CCSDS_OMM_VERS = 2.0
CREATION_DATE  = 
ORIGINATOR     = 

OBJECT_NAME    = STARLINK-36146
OBJECT_ID      = 2026-005Y
CENTER_NAME    = EARTH
REF_FRAME      = TEME
TIME_SYSTEM    = UTC
MEAN_ELEMENT_THEORY = SGP/SGP4

EPOCH          = 2026-01-24T06:00:02.000160
MEAN_MOTION    = 15.82413394
ECCENTRICITY   = .00012788
INCLINATION    = 43.0007
RA_OF_ASC_NODE = 135.3556
ARG_OF_PERICENTER = 274.8828
MEAN_ANOMALY   = 189.1032

EPHEMERIS_TYPE = 0
CLASSIFICATION_TYPE = U
NORAD_CAT_ID   = 67426
ELEMENT_SET_NO = 999
REV_AT_EPOCH   = 299
BSTAR          = -.83818644E-2
MEAN_MOTION_DOT = -.1576012E-1
MEAN_MOTION_DDOT = 0

CCSDS_OMM_VERS = 2.0
CREATION_DATE  = 
ORIGINATOR     = 

OBJECT_NAME    = STARLINK-36459
OBJECT_ID      = 2026-005Z
CENTER_NAME    = EARTH
REF_FRAME      = TEME
TIME_SYSTEM    = UTC
MEAN_ELEMENT_THEORY = SGP/SGP4

EPOCH          = 2026-01-24T06:00:02.000160
MEAN_MOTION    = 15.82402163
ECCENTRICITY   = .00012871
INCLINATION    = 43.0004
RA_OF_ASC_NODE = 135.3498
ARG_OF_PERICENTER = 275.8636
MEAN_ANOMALY   = 190.2867

EPHEMERIS_TYPE = 0
CLASSIFICATION_TYPE = U
NORAD_CAT_ID   = 67427
ELEMENT_SET_NO = 999
REV_AT_EPOCH   = 296
BSTAR          = -.84585308E-2
MEAN_MOTION_DOT = -.1587859E-1
MEAN_MOTION_DDOT = 0

