STARLINK-36487          
1 67416U 26005N   26024.25002315 -.01432823  00000+0 -74949-2 0  9998
2 67416  43.0005 135.4112 0001513 275.7599 166.1680 15.82489090  3040
STARLINK-36374          
1 67417U 26005P   26024.25002315 -.01443349  00000+0 -75583-2 0  9999
2 67417  43.0005 135.4059 0001363 280.4055 163.6735 15.82487113  3041
STARLINK-36455          
1 67418U 26005Q   26024.25002315 -.01453113  00000+0 -76227-2 0  9996
2 67418  43.0006 135.3998 0001365 277.7455 168.6643 15.82468529  3042
STARLINK-36424          
1 67419U 26005R   26024.25002315 -.01457965  00000+0 -76589-2 0  9997
2 67419  43.0005 135.3941 0001553 273.5482 175.1996 15.82445902  3047
STARLINK-35564          
1 67420U 26005S   26024.25002315 -.01465342  00000+0 -77036-2 0  9995
2 67420  43.0006 135.3890 0001476 277.3317 173.5310 15.82444350  2931
STARLINK-36431          
1 67421U 26005T   26024.25002315 -.01479179  00000+0 -77864-2 0  9998
2 67421  43.0008 135.3835 0001486 271.3478 181.6622 15.82443108  2831
STARLINK-36418          
1 67422U 26005U   26024.25002315 -.01487477  00000+0 -78297-2 0  9990
2 67422  43.0005 135.3788 0001469 276.9526 177.9675 15.82459774  2991
STARLINK-36465          
1 67423U 26005V   26024.25002315 -.01510234  00000+0 -79714-2 0  9994
2 67423  43.0009 135.3730 0001421 275.0355 182.2080 15.82445612  2783
STARLINK-36362          
1 67424U 26005W   26024.25002315 -.01530751  00000+0 -80978-2 0  9995
2 67424  43.0008 135.3675 0001413 276.9094 182.5606 15.82437482  3045
STARLINK-36447          
1 67425U 26005X   26024.25002315 -.01548826  00000+0 -82148-2 0  9999
2 67425  43.0008 135.3614 0001338 272.5011 189.2836 15.82417943  3045
STARLINK-36146          
1 67426U 26005Y   26024.25002315 -.01576012  00000+0 -83819-2 0  9994
2 67426  43.0007 135.3556 0001278 274.8828 189.1032 15.82413394  2990
STARLINK-36459          
1 67427U 26005Z   26024.25002315 -.01587859  00000+0 -84585-2 0  9997
2 67427  43.0004 135.3498 0001287 275.8636 190.2867 15.82402163  2969
